STARLINK-5256           
1 54175U 22141U   26068.26709384  .00007930  00000+0  51536-3 0  9994
2 54175  53.2185   6.0286 0001682  85.0951 275.0233 15.08869984185795
YAM-8                   
1 63254U 25052AW  26068.73092778  .00007810  00000+0  47267-3 0  9993
2 63254  97.7023 329.5345 0002369 152.6796 207.4558 15.10898938 54245
